{
  "norad_id": 45663,
  "name": "STARLINK-1446",
  "history": [
    {
      "epoch": "2026-03-28T18:51:20.385504Z",
      "apogee_km": 436.27425411210606,
      "perigee_km": 434.2989063477262,
      "latitude_deg": -2.027886275757747e-05,
      "longitude_deg": 159.57733478634069,
      "height_km": 435.18926871840847,
      "semi_major_axis_km": 6813.423580229915,
      "eccentricity": 0.00014496,
      "inclination_deg": 53.023,
      "raan_deg": 268.6134,
      "arg_perigee_deg": 1.2844,
      "mean_anomaly_deg": 358.8164,
      "mean_motion_rev_day": 15.43670761
    },
    {
      "epoch": "2026-03-29T21:16:13.657152Z",
      "apogee_km": 436.20049388443294,
      "perigee_km": 433.99573100204634,
      "latitude_deg": -2.5495291022065623e-05,
      "longitude_deg": 117.0359488544691,
      "height_km": 434.8868769723569,
      "semi_major_axis_km": 6813.235112443239,
      "eccentricity": 0.0001618,
      "inclination_deg": 53.0237,
      "raan_deg": 263.3788,
      "arg_perigee_deg": 2.4049,
      "mean_anomaly_deg": 357.6963,
      "mean_motion_rev_day": 15.43734813
    },
    {
      "epoch": "2026-03-30T05:02:21.537600Z",
      "apogee_km": 436.1741587521601,
      "perigee_km": 433.925670806545,
      "latitude_deg": 5.4958546660826025e-06,
      "longitude_deg": -1.3561184070386205,
      "height_km": 434.8169605909389,
      "semi_major_axis_km": 6813.186914779352,
      "eccentricity": 0.00016501,
      "inclination_deg": 53.0238,
      "raan_deg": 261.8386,
      "arg_perigee_deg": 2.5436,
      "mean_anomaly_deg": 357.5577,
      "mean_motion_rev_day": 15.43751194
    },
    {
      "epoch": "2026-03-30T11:15:15.623712Z",
      "apogee_km": 436.1472131536357,
      "perigee_km": 433.8698511280627,
      "latitude_deg": -1.901923829803471e-05,
      "longitude_deg": -96.06863722554179,
      "height_km": 434.76176328042925,
      "semi_major_axis_km": 6813.145532140849,
      "eccentricity": 0.00016713,
      "inclination_deg": 53.0235,
      "raan_deg": 260.6067,
      "arg_perigee_deg": 3.2022,
      "mean_anomaly_deg": 356.8993,
      "mean_motion_rev_day": 15.43765259
    },
    {
      "epoch": "2026-03-30T20:34:36.309216Z",
      "apogee_km": 436.16161515045314,
      "perigee_km": 433.7189906758131,
      "latitude_deg": 1.6910012464146952e-05,
      "longitude_deg": 121.86514264164498,
      "height_km": 434.6124581854473,
      "semi_major_axis_km": 6813.077302913133,
      "eccentricity": 0.00017926,
      "inclination_deg": 53.0235,
      "raan_deg": 258.7595,
      "arg_perigee_deg": 4.2609,
      "mean_anomaly_deg": 355.8411,
      "mean_motion_rev_day": 15.43788449
    },
    {
      "epoch": "2026-03-31T10:33:36.521856Z",
      "apogee_km": 436.10491012361945,
      "perigee_km": 433.6098553207785,
      "latitude_deg": 7.411263570655146e-06,
      "longitude_deg": -91.23212720753853,
      "height_km": 434.50523562987706,
      "semi_major_axis_km": 6812.994382722199,
      "eccentricity": 0.00018311,
      "inclination_deg": 53.0234,
      "raan_deg": 255.9874,
      "arg_perigee_deg": 5.2984,
      "mean_anomaly_deg": 354.804,
      "mean_motion_rev_day": 15.43816633
    },
    {
      "epoch": "2026-04-02T16:56:15.052992Z",
      "apogee_km": 435.90555323781064,
      "perigee_km": 433.0987459081862,
      "latitude_deg": -5.065680797744371e-05,
      "longitude_deg": 160.09498620476126,
      "height_km": 434.0090305132519,
      "semi_major_axis_km": 6812.639149572999,
      "eccentricity": 0.000206,
      "inclination_deg": 53.0236,
      "raan_deg": 245.2083,
      "arg_perigee_deg": 9.7759,
      "mean_anomaly_deg": 350.3285,
      "mean_motion_rev_day": 15.43937384
    },
    {
      "epoch": "2026-04-03T16:14:25.924416Z",
      "apogee_km": 435.776892976598,
      "perigee_km": 432.79713871206786,
      "latitude_deg": 4.840419301583746e-05,
      "longitude_deg": 164.97264190876305,
      "height_km": 433.71221820877514,
      "semi_major_axis_km": 6812.424015844333,
      "eccentricity": 0.0002187,
      "inclination_deg": 53.0245,
      "raan_deg": 240.5882,
      "arg_perigee_deg": 10.5366,
      "mean_anomaly_deg": 349.5685,
      "mean_motion_rev_day": 15.4401052
    },
    {
      "epoch": "2026-04-05T13:17:25.227744Z",
      "apogee_km": 435.6743096223645,
      "perigee_km": 432.2655313193618,
      "latitude_deg": 7.659022481754498e-06,
      "longitude_deg": -161.55621757425328,
      "height_km": 433.19106293873585,
      "semi_major_axis_km": 6812.106920470863,
      "eccentricity": 0.0002502,
      "inclination_deg": 53.0245,
      "raan_deg": 231.6566,
      "arg_perigee_deg": 11.741,
      "mean_anomaly_deg": 348.3653,
      "mean_motion_rev_day": 15.44118329
    },
    {
      "epoch": "2026-04-07T11:53:26.931840Z",
      "apogee_km": 435.4998220301777,
      "perigee_km": 431.93613198040657,
      "latitude_deg": 3.3215320795966147e-06,
      "longitude_deg": -151.71873939136717,
      "height_km": 432.87278108746506,
      "semi_major_axis_km": 6811.854977005291,
      "eccentricity": 0.00026158,
      "inclination_deg": 53.0231,
      "raan_deg": 222.415,
      "arg_perigee_deg": 13.1898,
      "mean_anomaly_deg": 346.9175,
      "mean_motion_rev_day": 15.44203996
    }
  ]
}